[{"OBJECT_NAME":"STARLINK-4442","OBJECT_ID":"2022-099R","EPOCH":"2026-03-09T22:38:47.936832","MEAN_MOTION":15.05610071,"ECCENTRICITY":0.00014944,"INCLINATION":97.6042,"RA_OF_ASC_NODE":191.4538,"ARG_OF_PERICENTER":88.5529,"MEAN_ANOMALY":271.5869,"EPHEMERIS_TYPE":0,"CLASSIFICATION_TYPE":"U","NORAD_CAT_ID":53480,"ELEMENT_SET_NO":999,"REV_AT_EPOCH":19608,"BSTAR":0.00075477308,"MEAN_MOTION_DOT":0.00010835,"MEAN_MOTION_DDOT":0},{"OBJECT_NAME":"STARLING 4","OBJECT_ID":"2023-100A","EPOCH":"2026-03-07T00:40:50.723040","MEAN_MOTION":15.06148396,"ECCENTRICITY":0.00078037,"INCLINATION":99.5115,"RA_OF_ASC_NODE":59.9711,"ARG_OF_PERICENTER":83.0949,"MEAN_ANOMALY":277.1159,"EPHEMERIS_TYPE":0,"CLASSIFICATION_TYPE":"U","NORAD_CAT_ID":57386,"ELEMENT_SET_NO":999,"REV_AT_EPOCH":14452,"BSTAR":5.567556e-6,"MEAN_MOTION_DOT":-9.0e-8,"MEAN_MOTION_DDOT":0}]
